OBJECT_NAME,OBJECT_ID,EPOCH,MEAN_MOTION,ECCENTRICITY,INCLINATION,RA_OF_ASC_NODE,ARG_OF_PERICENTER,MEAN_ANOMALY,EPHEMERIS_TYPE,CLASSIFICATION_TYPE,NORAD_CAT_ID,ELEMENT_SET_NO,REV_AT_EPOCH,BSTAR,MEAN_MOTION_DOT,MEAN_MOTION_DDOT
CZ-2F DEB,2020-063C,2020-09-08T23:24:21.501504,15.37242808,.0159867,49.9029,43.0188,164.4089,196.1844,0,U,46391,999,71,.10971E-2,6.3289E-4,0
CZ-2F DEB,2020-063D,2020-09-08T19:33:22.595040,15.47658049,.0116489,49.8676,43.4884,170.1718,190.1550,0,U,46392,999,69,.11638E-2,8.0722E-4,0
CZ-2F DEB,2020-063E,2020-09-08T23:10:56.891136,15.62037376,.0106924,50.4194,41.9917,223.4398,135.8113,0,U,46393,999,55,.11509E-2,1.3907E-3,0
CZ-2F DEB,2020-063F,2020-09-08T22:09:20.698272,15.54698071,.0113865,50.4633,42.4515,205.6064,153.9505,0,U,46394,999,58,.10856E-2,9.8914E-4,0
2020-063G,2020-063G,2020-09-09T16:20:54.781440,15.76765193,.0011906,50.2069,37.7335,312.4886,47.5087,0,U,46395,999,85,.48268E-4,7.312E-5,0
GAOFEN 11-2,2020-064A,2020-09-09T04:51:50.673312,15.31798244,.0326550,97.3306,5.3398,164.6036,289.2895,0,U,46396,999,30,.00000E+0,-5.97E-6,.18911E-5
CZ-4B R/B,2020-064B,2020-09-09T03:46:20.853120,15.68182580,.0197360,97.2642,5.3562,144.2573,305.9646,0,U,46397,999,30,.00000E+0,-6.34E-6,.20067E-5
